SL-14 R/B               
1 16496U 86006B   26077.47121150  .00000725  00000+0  74548-4 0  9994
2 16496  82.5237 251.4698 0075206 243.1269 116.2247 14.86827891150516
COSMOS 1743             
1 16719U 86034A   26077.37199019  .00032322  00000+0  41107-3 0  9993
2 16719  82.5280  64.7117 0002167 216.4499 143.6610 15.59207926181601
SL-14 R/B               
1 16792U 86046B   26077.42875136  .00000456  00000+0  49643-4 0  9991
2 16792  82.4787  71.9216 0022629 195.4379 164.6150 14.85598990127706
SL-14 R/B               
1 16882U 86055B   26077.57568869  .00000415  00000+0  45024-4 0  9993
2 16882  82.5184 118.3209 0017571 305.5998 206.4639 14.85650621120684
AJISAI (EGS)            
1 16908U 86061A   26077.55641270 -.00000103  00000+0 -39081-4 0  9997
2 16908  50.0090  66.0812 0011298 309.8797 151.5388 12.44515700469107
SL-14 R/B               
1 17567U 87024B   26077.45896357  .00000450  00000+0  48526-4 0  9993
2 17567  82.5244  84.5188 0017014 228.4986 131.4771 14.86140529 89437
COSMOS 1833             
1 17589U 87027A   26077.56741051 -.00000220  00000+0 -91900-4 0  9993
2 17589  70.9200 307.3605 0023809 201.8075 158.2035 14.13052047 11574
SL-16 R/B               
1 17590U 87027B   26077.51534098 -.00000055  00000+0 -32674-5 0  9991
2 17590  70.9991 257.8951 0003099 122.5025 237.6399 14.17166802 16590
SL-14 R/B               
1 17912U 87038B   26077.52581165  .00000422  00000+0  46011-4 0  9994
2 17912  82.4986 288.4822 0020362 132.4162 227.8781 14.85377024 80548
COSMOS 1844             
1 17973U 87041A   26077.52244061  .00000009  00000+0  29565-4 0  9992
2 17973  70.9008  15.5452 0030474   4.9786 355.1632 14.14551207  4837
SL-14 R/B               
1 18153U 87055B   26077.43379101  .00000451  00000+0  49114-4 0  9995
2 18153  82.5026 340.7924 0020348 349.2081  10.8695 14.85638968 71236
COSMOS 1867             
1 18187U 87060A   26077.52326832 -.00000046  00000+0  20236-4 0  9996
2 18187  65.0096 281.9664 0014611 279.1411  80.8020 14.31504350 21206
SL-14 R/B               
1 18749U 88001B   26077.56444570  .00000502  00000+0  55234-4 0  9992
2 18749  82.5160 187.0154 0017442 204.7063 155.3320 14.85538195 43341
COSMOS 1933             
1 18958U 88020A   26077.42523071  .00003442  00000+0  16754-3 0  9993
2 18958  82.5101 242.2665 0004562 153.2832 206.8637 15.18064626 51555
SL-3 R/B                
1 19046U 88032B   26077.55419517  .00004480  00000+0  20951-3 0  9995
2 19046  97.5199  60.7744 0025233 199.1526 160.8763 15.20008778 53454
SL-16 R/B               
1 19120U 88039B   26077.36535856  .00000006  00000+0  25388-4 0  9999
2 19120  71.0147  50.2011 0023201 321.7816  38.1664 14.19617726959612
COSMOS 1953             
1 19210U 88050A   26077.46290203  .00005846  00000+0  20810-3 0  9998
2 19210  82.5100 149.4239 0012659  95.0796 265.1889 15.28668002 39124
